<?xml version="1.0" encoding="UTF-8"?>
<gpx version="1.1" creator="Firefox-Plugin">
<wpt lat="41.0337874" lon="28.9779527">
                  <name>İstiklal Cd.</name>
                  <desc>A wide boulevard to stroll down for shops, restaurants and LIFE.</desc>
                </wpt>

<wpt lat="41.089173699999996" lon="29.056593399999997">
                  <name>Borusan Contemporary</name>
                  <desc>Have been curious to see this gallery.</desc>
                </wpt>

<wpt lat="41.0407461" lon="28.9786765">
                  <name>Arter</name>
                  <desc>Somewhat out of the way, beautiful very contemporary Turkish art museum funded by the only good billionaire in the world - the Koç family who is single-handedly trying to keep Turkey from becoming entirely conservative fascist.</desc>
                </wpt>

<wpt lat="41.031773" lon="28.9793518">
                  <name>Tavern</name>
                  <desc>Another cool looking music &amp; cocktail bar https://www.instagram.com/tavern____/?hl=en</desc>
                </wpt>
<wpt lat="41.031889799999995" lon="28.9796721">
                  <name>NOH Radio Bar</name>
                  <desc>Sadly haven't made it here, but seems like a hip place for DJ sets late at night - https://www.instagram.com/nohradio/?hl=en - also next to Tavern</desc>
                </wpt>

</gpx>